{"epoch":1784799577,"count":18318,"objects":[{"id":"52757","name":"HAWK-5A","type":"PAYLOAD","l1":"1 52757U 22057AB  26203.69869860  .00019598  00000-0  32108-3 0  9996","l2":"2 52757  97.6635   4.8796 0002925 300.9143  59.1822 15.52520606231854"},{"id":"55324","name":"HAWK-6B","type":"PAYLOAD","l1":"1 55324U 23011A   26203.91864698  .00004640  00000-0  20005-3 0  9994","l2":"2 55324  40.4980 143.6134 0004616 278.6955  81.3331 15.23204189193295"},{"id":"55326","name":"HAWK-6C","type":"PAYLOAD","l1":"1 55326U 23011C   26203.91801469  .00004248  00000-0  18384-3 0  9994","l2":"2 55326  40.4972 140.4524 0005051 274.3698  85.6535 15.23203189193301"},{"id":"55327","name":"HAWK-6A","type":"PAYLOAD","l1":"1 55327U 23011D   26203.91805117  .00004311  00000-0  18648-3 0  9993","l2":"2 55327  40.4984 142.0800 0004794 271.2225  88.8035 15.23203972193305"},{"id":"56191","name":"HAWK-7A","type":"PAYLOAD","l1":"1 56191U 23054P   26203.94279044  .00005635  00000-0  21092-3 0  9994","l2":"2 56191  97.2652  90.3706 0000949 268.7970  91.3161 15.27691083182487"},{"id":"56193","name":"HAWK-7B","type":"PAYLOAD","l1":"1 56193U 23054R   26203.74621937  .00005420  00000-0  20297-3 0  9994","l2":"2 56193  97.2681  88.4552 0000492 355.1167   5.0068 15.27690228182455"},{"id":"56200","name":"HAWK-7C","type":"PAYLOAD","l1":"1 56200U 23054Y   26203.54959052  .00005338  00000-0  19997-3 0  9996","l2":"2 56200  97.2655  89.0215 0000310 267.9693  92.1512 15.27686732182424"}]}